PassportNumber,FullName,City,Street,State,CarLicense,CarBrand,CarColor
A1234567,John Smith,New York,123 Broadway,NY,ABC1234,Toyota,Yellow
B2345678,Emma Johnson,Los Angeles,456 Hollywood Blvd,CA,DEF5678,Ford,White
C3456789,Michael Brown,Chicago,789 Michigan Ave,IL,GHI9012,Chevrolet,Black
D4567890,Sophia Davis,Houston,321 Texas St,TX,JKL3456,Honda,Yellow
E5678901,William Wilson,Phoenix,654 Desert Rd,AZ,MNO7890,Nissan,White
F6789012,Olivia Martinez,Philadelphia,987 Liberty Ave,PA,PQR1234,Hyundai,Yellow
G7890123,James Anderson,San Antonio,147 Alamo St,TX,STU5678,Kia,Black
H8901234,Ava Taylor,San Diego,258 Pacific Beach Dr,CA,VWX9012,Volkswagen,White
I9012345,Benjamin Thomas,Dallas,369 Cowboy Ln,TX,YZA3456,Mazda,Yellow
J0123456,Mia Hernandez,San Jose,159 Silicon Valley Blvd,CA,BCD7890,Subaru,Black
K1234567,Alexander White,Austin,753 Capitol St,TX,EFG1234,Lexus,White
L2345678,Charlotte King,Jacksonville,951 Atlantic Blvd,FL,HIJ5678,Chrysler,Yellow
M3456789,Daniel Lee,San Francisco,357 Golden Gate Ave,CA,KLM9012,BMW,Black
N4567890,Amelia Scott,Columbus,159 Buckeye St,OH,NOP3456,Mercedes,White
O5678901,Ethan Green,Fort Worth,753 Cowtown Rd,TX,QRS7890,Audi,Yellow
P6789012,Harper Adams,Charlotte,951 Queen City Blvd,NC,TUV1234,Volvo,Black
Q7890123,Matthew Baker,Seattle,357 Rainy St,WA,WXY5678,Acura,White
R8901234,Evelyn Nelson,Denver,159 Mountain View Rd,CO,ZAB9012,Infiniti,Yellow
S9012345,Andrew Carter,Washington,753 Capitol Hill St,DC,CDE3456,Buick,Black
T0123456,Abigail Mitchell,Boston,951 Freedom Trail,MA,FGH7890,Cadillac,White
U1234567,Joseph Phillips,Nashville,357 Music Row,TN,IJK1234,Dodge,Yellow
V2345678,Elizabeth Torres,Las Vegas,159 Casino Way,NV,LMN5678,Jeep,Black
W3456789,Christopher King,Portland,753 Rose Garden St,OR,OPQ9012,Lincoln,White
X4567890,Grace Rogers,Oklahoma City,951 Sooner Rd,OK,RST3456,GMC,Yellow
Y5678901,Samuel Cooper,Miami,357 Ocean Drive,FL,UVW7890,Ram,Black
Z6789012,Chloe Reed,New Orleans,159 Bourbon St,LA,XYZ1234,Mitsubishi,White
A7890123,David Morgan,Kansas City,753 Barbecue Blvd,MO,BCD5678,Porsche,Yellow
B8901234,Zoe Brooks,Albuquerque,951 Breaking Bad Rd,NM,EFG9012,Tesla,Black
C9012345,Jonathan Bailey,Fresno,357 Valley View St,CA,HIJ3456,Mini,White
D0123456,Lily Rivera,Sacramento,159 Gold Rush Ave,CA,KLM7890,Jaguar,Yellow